{
  "norad_id": 65966,
  "name": "KUIPER-00141",
  "history": [
    {
      "epoch": "2026-03-28T17:26:13.651296Z",
      "apogee_km": 629.9653168266577,
      "perigee_km": 629.242958870168,
      "latitude_deg": 1.0485482804154825e-05,
      "longitude_deg": 168.8110746253485,
      "height_km": 630.3035275541416,
      "semi_major_axis_km": 7007.741137848412,
      "eccentricity": 5.154e-05,
      "inclination_deg": 51.9024,
      "raan_deg": 256.5108,
      "arg_perigee_deg": 82.5294,
      "mean_anomaly_deg": 277.5727,
      "mean_motion_rev_day": 14.79911298
    }
  ]
}